{
  "norad_id": 61530,
  "name": "STARLINK-32261",
  "history": [
    {
      "epoch": "2026-03-28T21:57:01.930752Z",
      "apogee_km": 476.1380712529217,
      "perigee_km": 474.2878038367835,
      "latitude_deg": -1.030625283184e-05,
      "longitude_deg": -102.27746490455615,
      "height_km": 475.9935488976808,
      "semi_major_axis_km": 6853.349937544852,
      "eccentricity": 0.00013499,
      "inclination_deg": 53.1601,
      "raan_deg": 53.3088,
      "arg_perigee_deg": 82.7105,
      "mean_anomaly_deg": 277.4049,
      "mean_motion_rev_day": 15.30200714
    },
    {
      "epoch": "2026-03-29T04:13:15.012480Z",
      "apogee_km": 476.12244280606865,
      "perigee_km": 474.3309735327539,
      "latitude_deg": -1.618619636071228e-05,
      "longitude_deg": 162.19751148047305,
      "height_km": 476.0086471099786,
      "semi_major_axis_km": 6853.363708169411,
      "eccentricity": 0.0001307,
      "inclination_deg": 53.1605,
      "raan_deg": 52.0958,
      "arg_perigee_deg": 82.549,
      "mean_anomaly_deg": 277.5659,
      "mean_motion_rev_day": 15.30196102
    },
    {
      "epoch": "2026-03-30T03:44:02.688288Z",
      "apogee_km": 476.1145935304676,
      "perigee_km": 474.3217558167735,
      "latitude_deg": 7.679867298150523e-05,
      "longitude_deg": 163.98327756633222,
      "height_km": 475.988271576055,
      "semi_major_axis_km": 6853.35517467362,
      "eccentricity": 0.0001308,
      "inclination_deg": 53.1608,
      "raan_deg": 47.5458,
      "arg_perigee_deg": 81.7893,
      "mean_anomaly_deg": 278.3257,
      "mean_motion_rev_day": 15.3019896
    },
    {
      "epoch": "2026-03-30T14:42:25.316064Z",
      "apogee_km": 476.13035793610743,
      "perigee_km": 474.33217117085405,
      "latitude_deg": 2.7247642452395352e-05,
      "longitude_deg": -3.185384354260635,
      "height_km": 476.008290676521,
      "semi_major_axis_km": 6853.36826455348,
      "eccentricity": 0.00013119,
      "inclination_deg": 53.161,
      "raan_deg": 45.4221,
      "arg_perigee_deg": 82.2585,
      "mean_anomaly_deg": 277.8565,
      "mean_motion_rev_day": 15.30194576
    },
    {
      "epoch": "2026-03-30T20:58:38.150688Z",
      "apogee_km": 476.1271963277941,
      "perigee_km": 474.3598465589239,
      "latitude_deg": -1.5167480994713742e-05,
      "longitude_deg": -98.70990252379205,
      "height_km": 476.02645125171387,
      "semi_major_axis_km": 6853.380521443359,
      "eccentricity": 0.00012894,
      "inclination_deg": 53.1607,
      "raan_deg": 44.2086,
      "arg_perigee_deg": 82.5087,
      "mean_anomaly_deg": 277.606,
      "mean_motion_rev_day": 15.30190471
    },
    {
      "epoch": "2026-03-31T14:13:14.862432Z",
      "apogee_km": 476.2308330047872,
      "perigee_km": 474.3255835768832,
      "latitude_deg": 3.243587566343219e-05,
      "longitude_deg": -1.4064983386702041,
      "height_km": 476.10790209176645,
      "semi_major_axis_km": 6853.415208290835,
      "eccentricity": 0.000139,
      "inclination_deg": 53.1626,
      "raan_deg": 40.8731,
      "arg_perigee_deg": 85.8772,
      "mean_anomaly_deg": 274.2388,
      "mean_motion_rev_day": 15.30178854
    },
    {
      "epoch": "2026-04-01T13:44:01.197312Z",
      "apogee_km": 476.28945411014047,
      "perigee_km": 474.14572479456,
      "latitude_deg": 2.3865169858170938e-05,
      "longitude_deg": 0.38219526340349247,
      "height_km": 476.17470220228404,
      "semi_major_axis_km": 6853.3545894523495,
      "eccentricity": 0.0001564,
      "inclination_deg": 53.1616,
      "raan_deg": 36.3205,
      "arg_perigee_deg": 93.1702,
      "mean_anomaly_deg": 266.9478,
      "mean_motion_rev_day": 15.30199156
    },
    {
      "epoch": "2026-04-02T13:14:49.504704Z",
      "apogee_km": 476.2668570336491,
      "perigee_km": 474.1964543627628,
      "latitude_deg": 2.799863667392279e-05,
      "longitude_deg": 2.1646566617409975,
      "height_km": 476.0835547328737,
      "semi_major_axis_km": 6853.368655698206,
      "eccentricity": 0.00015105,
      "inclination_deg": 53.1621,
      "raan_deg": 31.7699,
      "arg_perigee_deg": 87.4496,
      "mean_anomaly_deg": 272.6678,
      "mean_motion_rev_day": 15.30194445
    },
    {
      "epoch": "2026-04-03T19:01:50.542176Z",
      "apogee_km": 476.2980113183139,
      "perigee_km": 474.25295303363237,
      "latitude_deg": 3.663743454350403e-05,
      "longitude_deg": -91.57412932133015,
      "height_km": 476.01300081810575,
      "semi_major_axis_km": 6853.412482175972,
      "eccentricity": 0.0001492,
      "inclination_deg": 53.1618,
      "raan_deg": 26.0086,
      "arg_perigee_deg": 80.9717,
      "mean_anomaly_deg": 279.1453,
      "mean_motion_rev_day": 15.30179767
    },
    {
      "epoch": "2026-04-04T04:26:09.152160Z",
      "apogee_km": 476.0809385959774,
      "perigee_km": 474.3728061844222,
      "latitude_deg": 1.1574045721311741e-05,
      "longitude_deg": 125.13595363145816,
      "height_km": 476.2105522822643,
      "semi_major_axis_km": 6853.3638723901995,
      "eccentricity": 0.00012462,
      "inclination_deg": 53.162,
      "raan_deg": 24.1825,
      "arg_perigee_deg": 95.7356,
      "mean_anomaly_deg": 264.3787,
      "mean_motion_rev_day": 15.30196047
    },
    {
      "epoch": "2026-04-05T11:47:12.606432Z",
      "apogee_km": 476.0151700528568,
      "perigee_km": 474.4605504995516,
      "latitude_deg": 1.2326236211123209e-05,
      "longitude_deg": 7.5210215807405145,
      "height_km": 476.3481009354123,
      "semi_major_axis_km": 6853.374860276204,
      "eccentricity": 0.00011342,
      "inclination_deg": 53.1616,
      "raan_deg": 18.1195,
      "arg_perigee_deg": 105.8087,
      "mean_anomaly_deg": 254.3039,
      "mean_motion_rev_day": 15.30192367
    },
    {
      "epoch": "2026-04-06T00:19:39.356544Z",
      "apogee_km": 476.03377630276464,
      "perigee_km": 474.5114969542765,
      "latitude_deg": -4.819828747539312e-05,
      "longitude_deg": 176.46948586993807,
      "height_km": 476.0601650335904,
      "semi_major_axis_km": 6853.40963662852,
      "eccentricity": 0.00011106,
      "inclination_deg": 53.1605,
      "raan_deg": 15.6945,
      "arg_perigee_deg": 81.627,
      "mean_anomaly_deg": 278.4856,
      "mean_motion_rev_day": 15.3018072
    },
    {
      "epoch": "2026-04-07T10:48:48.774528Z",
      "apogee_km": 476.0135910087256,
      "perigee_km": 474.4512969102798,
      "latitude_deg": 4.137321637457626e-06,
      "longitude_deg": 11.087591874935416,
      "height_km": 476.4075466606933,
      "semi_major_axis_km": 6853.369443959502,
      "eccentricity": 0.00011398,
      "inclination_deg": 53.161,
      "raan_deg": 9.0181,
      "arg_perigee_deg": 110.742,
      "mean_anomaly_deg": 249.3703,
      "mean_motion_rev_day": 15.30194181
    },
    {
      "epoch": "2026-04-07T18:39:04.972032Z",
      "apogee_km": 476.0747051259914,
      "perigee_km": 474.4011109734456,
      "latitude_deg": 6.627429306683928e-05,
      "longitude_deg": -108.31784074017379,
      "height_km": 476.3476867442606,
      "semi_major_axis_km": 6853.374908049718,
      "eccentricity": 0.0001221,
      "inclination_deg": 53.162,
      "raan_deg": 7.502,
      "arg_perigee_deg": 104.6321,
      "mean_anomaly_deg": 255.4816,
      "mean_motion_rev_day": 15.30192351
    },
    {
      "epoch": "2026-04-08T10:19:38.055648Z",
      "apogee_km": 475.9411382841299,
      "perigee_km": 474.6117131478086,
      "latitude_deg": -4.355714626764267e-06,
      "longitude_deg": 12.864571705864519,
      "height_km": 476.32418740387357,
      "semi_major_axis_km": 6853.4134257159685,
      "eccentricity": 9.699e-05,
      "inclination_deg": 53.16,
      "raan_deg": 4.4661,
      "arg_perigee_deg": 102.9762,
      "mean_anomaly_deg": 257.1347,
      "mean_motion_rev_day": 15.30179451
    },
    {
      "epoch": "2026-04-09T00:26:07.313280Z",
      "apogee_km": 475.7798320894317,
      "perigee_km": 474.77238036281597,
      "latitude_deg": -5.6181856170503786e-05,
      "longitude_deg": 157.93512429186688,
      "height_km": 476.26296266720726,
      "semi_major_axis_km": 6853.413106226123,
      "eccentricity": 7.35e-05,
      "inclination_deg": 53.1622,
      "raan_deg": 1.738,
      "arg_perigee_deg": 100.0401,
      "mean_anomaly_deg": 260.0682,
      "mean_motion_rev_day": 15.30179558
    },
    {
      "epoch": "2026-04-09T23:56:53.445120Z",
      "apogee_km": 475.9418213537556,
      "perigee_km": 474.48150982009247,
      "latitude_deg": -2.9804859114592707e-05,
      "longitude_deg": 159.72328811614818,
      "height_km": 475.96590118575904,
      "semi_major_axis_km": 6853.348665586924,
      "eccentricity": 0.00010654,
      "inclination_deg": 53.1604,
      "raan_deg": 357.184,
      "arg_perigee_deg": 78.61,
      "mean_anomaly_deg": 281.502,
      "mean_motion_rev_day": 15.3020114
    },
    {
      "epoch": "2026-04-11T02:35:48.290784Z",
      "apogee_km": 475.75716253431347,
      "perigee_km": 474.70284055479624,
      "latitude_deg": -1.4645644320625987e-05,
      "longitude_deg": 113.74595544138737,
      "height_km": 475.84747496969607,
      "semi_major_axis_km": 6853.367001544555,
      "eccentricity": 7.692e-05,
      "inclination_deg": 53.162,
      "raan_deg": 352.0296,
      "arg_perigee_deg": 57.7057,
      "mean_anomaly_deg": 302.4018,
      "mean_motion_rev_day": 15.30194999
    },
    {
      "epoch": "2026-04-12T22:29:17.448000Z",
      "apogee_km": 476.1144651601571,
      "perigee_km": 474.3682243579133,
      "latitude_deg": 1.7910201226845828e-05,
      "longitude_deg": 165.0786323448402,
      "height_km": 475.9660834126581,
      "semi_major_axis_km": 6853.378344759035,
      "eccentricity": 0.0001274,
      "inclination_deg": 53.1625,
      "raan_deg": 343.5363,
      "arg_perigee_deg": 78.5295,
      "mean_anomaly_deg": 281.5849,
      "mean_motion_rev_day": 15.301912
    }
  ]
}